{
    "links": {
        "self": "http://www.neowsapp.com/rest/v1/neo/3409652?api_key=iIulBulltgU6a56xZRHN4H3l9WmuAYTsLGpBGhQ2"
    },
    "id": "3409652",
    "neo_reference_id": "3409652",
    "name": "(2008 GE128)",
    "designation": "2008 GE128",
    "nasa_jpl_url": "http://ssd.jpl.nasa.gov/sbdb.cgi?sstr=3409652",
    "absolute_magnitude_h": 25.8,
    "estimated_diameter": {
        "kilometers": {
            "estimated_diameter_min": 0.0183888672,
            "estimated_diameter_max": 0.0411187571
        },
        "meters": {
            "estimated_diameter_min": 18.388867207,
            "estimated_diameter_max": 41.1187571041
        },
        "miles": {
            "estimated_diameter_min": 0.0114263088,
            "estimated_diameter_max": 0.0255500032
        },
        "feet": {
            "estimated_diameter_min": 60.3309310875,
            "estimated_diameter_max": 134.9040630575
        }
    },
    "is_potentially_hazardous_asteroid": false,
    "close_approach_data": [
        {
            "close_approach_date": "2008-04-03",
            "close_approach_date_full": "2008-Apr-03 06:42",
            "epoch_date_close_approach": 1207204920000,
            "relative_velocity": {
                "kilometers_per_second": "7.1940407942",
                "kilometers_per_hour": "25898.5468589755",
                "miles_per_hour": "16092.3498524562"
            },
            "miss_distance": {
                "astronomical": "0.0084229612",
                "lunar": "3.2765319068",
                "kilometers": "1260057.054612644",
                "miles": "782963.1472527272"
            },
            "orbiting_body": "Earth"
        }
    ],
    "orbital_data": {
        "orbit_id": "6",
        "orbit_determination_date": "2017-04-06 09:03:40",
        "first_observation_date": "2008-04-14",
        "last_observation_date": "2008-04-16",
        "data_arc_in_days": 2,
        "observations_used": 12,
        "orbit_uncertainty": "9",
        "minimum_orbit_intersection": ".00417966",
        "jupiter_tisserand_invariant": "3.901",
        "epoch_osculation": "2454571.5",
        "eccentricity": ".463968197748807",
        "semi_major_axis": "1.824553718192133",
        "inclination": "1.722054542072126",
        "ascending_node_longitude": "182.7228939961427",
        "orbital_period": "900.1883919163354",
        "perihelion_distance": ".9780188178666441",
        "perihelion_argument": "347.2643780927983",
        "aphelion_distance": "2.671088618517621",
        "perihelion_time": "2454540.340330950721",
        "mean_anomaly": "12.46125917471618",
        "mean_motion": ".3999162877824122",
        "equinox": "J2000",
        "orbit_class": {
            "orbit_class_type": "APO",
            "orbit_class_description": "Near-Earth asteroid orbits which cross the Earth’s orbit similar to that of 1862 Apollo",
            "orbit_class_range": "a (semi-major axis) > 1.0 AU; q (perihelion) < 1.017 AU"
        }
    },
    "is_sentry_object": false
}